[{"OBJECT_NAME":"AETHER-2","OBJECT_ID":"2023-174AV","EPOCH":"2026-03-09T17:13:49.792224","MEAN_MOTION":15.33264165,"ECCENTRICITY":0.00086301,"INCLINATION":97.3931,"RA_OF_ASC_NODE":151.9008,"ARG_OF_PERICENTER":139.5247,"MEAN_ANOMALY":220.6639,"EPHEMERIS_TYPE":0,"CLASSIFICATION_TYPE":"U","NORAD_CAT_ID":58299,"ELEMENT_SET_NO":999,"REV_AT_EPOCH":12998,"BSTAR":0.00026165949,"MEAN_MOTION_DOT":8.341e-5,"MEAN_MOTION_DDOT":0},{"OBJECT_NAME":"STARLINK-31229","OBJECT_ID":"2024-031X","EPOCH":"2026-03-09T22:06:25.308000","MEAN_MOTION":15.30189928,"ECCENTRICITY":0.00010189,"INCLINATION":53.1598,"RA_OF_ASC_NODE":295.9694,"ARG_OF_PERICENTER":105.0075,"MEAN_ANOMALY":255.1039,"EPHEMERIS_TYPE":0,"CLASSIFICATION_TYPE":"U","NORAD_CAT_ID":58986,"ELEMENT_SET_NO":999,"REV_AT_EPOCH":11654,"BSTAR":1.6318058e-5,"MEAN_MOTION_DOT":1.24e-6,"MEAN_MOTION_DDOT":0}]
